OBJECT_NAME,OBJECT_ID,EPOCH,MEAN_MOTION,ECCENTRICITY,INCLINATION,RA_OF_ASC_NODE,ARG_OF_PERICENTER,MEAN_ANOMALY,EPHEMERIS_TYPE,CLASSIFICATION_TYPE,NORAD_CAT_ID,ELEMENT_SET_NO,REV_AT_EPOCH,BSTAR,MEAN_MOTION_DOT,MEAN_MOTION_DDOT
O3B MPOWER F1,2022-174A,2026-07-03T12:35:09.729888,5.00114889,.00065571,0.0504,340.1797,133.7327,228.0340,0,U,54755,999,6617,0,-.14E-6,0
O3B MPOWER F2,2022-174B,2026-07-04T07:13:05.438496,5.00115014,.00058289,0.0462,340.1247,117.9144,262.0267,0,U,54756,999,6630,0,-.13E-6,0
STARLINK-5464,2022-175A,2026-07-04T14:00:01.999872,15.15546196,.00012653,53.1587,234.2455,50.5588,2.9446,0,U,54758,999,579,.60950587E-1,.1264433E-1,0
STARLINK-5215,2022-175B,2026-07-04T14:00:01.999872,15.19060042,.00014493,53.1594,234.1554,68.0134,30.5190,0,U,54759,999,574,.47828929E-1,.1098623E-1,0
STARLINK-5220,2022-175C,2026-07-04T10:52:34.255200,15.08829787,.00010592,53.1582,239.9373,88.3771,271.7342,0,U,54760,999,19754,.94081527E-4,.1209E-4,0
STARLINK-5202,2022-175D,2026-07-04T10:56:54.242304,15.09441267,.00005193,53.1602,239.9600,40.6676,319.4354,0,U,54761,999,19754,.46586931E-2,.75899E-3,0
STARLINK-5214,2022-175E,2026-07-04T14:00:01.999872,15.29309098,.00011044,53.1607,237.4477,65.1828,186.9185,0,U,54762,999,580,.2807673E-2,.81436E-3,0
STARLINK-5191,2022-175F,2026-07-04T10:47:15.843552,15.08830067,.00009377,53.1596,239.9157,80.8509,279.2589,0,U,54763,999,19754,.90634812E-4,.1155E-4,0
STARLINK-5458,2022-175G,2026-07-04T03:55:15.241440,15.08853851,.00023723,53.1589,240.9788,87.1466,272.9796,0,U,54764,999,19750,.13830474E-3,.1914E-4,0
STARLINK-5471,2022-175J,2026-07-04T10:26:02.550336,15.08846144,.00012565,53.1588,239.8226,84.4851,275.6284,0,U,54766,999,19754,.40430468E-4,.356E-5,0
STARLINK-5472,2022-175K,2026-07-04T10:20:44.016000,15.08833735,.00012418,53.1593,239.7999,85.7954,274.3180,0,U,54767,999,19754,.49104786E-4,.494E-5,0
STARLINK-5444,2022-175L,2026-07-04T14:00:01.999872,15.31662033,.00011537,53.1596,222.6122,78.6642,104.9037,0,U,54768,999,580,.24930259E-2,.77713E-3,0
STARLINK-5448,2022-175N,2026-07-04T14:00:01.999872,15.34176655,.0001521,53.1598,222.2577,33.6465,331.3759,0,U,54770,999,580,.60990372E-2,.210053E-2,0
STARLINK-5451,2022-175P,2026-07-04T14:00:01.999872,15.14980315,.00013281,53.1598,233.8625,101.5440,146.4271,0,U,54771,999,580,.59622698E-1,.1231578E-1,0
STARLINK-5452,2022-175Q,2026-07-04T14:00:01.999872,15.21811414,.00011801,53.1597,223.8808,72.7630,179.1463,0,U,54772,999,494,.33519341E-1,.826217E-2,0
STARLINK-5453,2022-175R,2026-07-04T13:20:53.659104,15.08834487,.00012666,53.1593,239.1594,89.4425,270.6712,0,U,54773,999,19756,.28532022E-4,.166E-5,0
STARLINK-5454,2022-175S,2026-07-04T14:00:01.999872,15.18825328,.00015538,53.1601,223.5961,51.1189,346.8352,0,U,54774,999,569,.54018951E-1,.1245888E-1,0
STARLINK-5465,2022-175T,2026-07-04T10:04:49.022976,15.08834296,.00012791,53.1594,239.7335,87.5430,272.5708,0,U,54775,999,19754,.1142381E-4,-.106E-5,0
STARLINK-5470,2022-175U,2026-07-04T12:43:45.418656,15.08831124,.00009715,53.1585,239.0048,92.9272,267.1831,0,U,54776,999,19756,.91779765E-4,.1173E-4,0
STARLINK-5468,2022-175V,2026-07-04T09:59:32.159616,15.08827206,.00008764,53.1581,239.7106,90.7508,269.3584,0,U,54777,999,19754,.12835026E-3,.1755E-4,0
STARLINK-5450,2022-175W,2026-07-04T14:00:01.999872,15.22719856,.00008363,53.1610,223.7722,64.7430,242.0327,0,U,54778,999,560,.6040545E-1,.1570324E-1,0
STARLINK-5447,2022-175X,2026-07-04T14:00:01.999872,15.23044312,.00011639,53.1609,223.7489,61.0082,257.6619,0,U,54779,999,580,.58917468E-1,.1543693E-1,0
STARLINK-5449,2022-175Y,2026-07-04T14:00:01.999872,15.21699423,.00011178,53.1603,223.6603,61.7668,299.1131,0,U,54780,999,539,.60843952E-1,.1531403E-1,0
STARLINK-5443,2022-175Z,2026-07-04T14:00:01.999872,15.23080562,.00014738,53.1606,223.6203,58.8672,322.5544,0,U,54781,999,580,.57952966E-1,.1517517E-1,0
STARLINK-5439,2022-175AB,2026-07-04T14:00:01.999872,15.31661399,.00009195,53.1587,222.5617,76.6475,132.6746,0,U,54783,999,494,.24886171E-2,.77572E-3,0
STARLINK-5442,2022-175AC,2026-07-04T09:54:12.177216,15.08837516,.00008631,53.1592,239.6898,78.8926,281.2163,0,U,54784,999,19754,.34448661E-4,.26E-5,0
STARLINK-5440,2022-175AD,2026-07-04T14:00:01.999872,15.21205009,.00020056,53.1596,183.5151,70.9212,49.1745,0,U,54785,999,575,.43402141E-2,.99058E-3,0
STARLINK-5441,2022-175AF,2026-07-04T09:48:54.249408,15.08829310,.0001388,53.1600,239.6655,85.2017,274.9133,0,U,54787,999,19754,.13782644E-3,.1906E-4,0
STARLINK-5399,2022-175AG,2026-07-04T14:00:01.999872,15.22624178,.00016447,53.1601,223.5408,64.3623,0.7226,0,U,54788,999,580,.60885374E-1,.1579043E-1,0
STARLINK-5446,2022-175AH,2026-07-04T11:38:52.005696,15.08838010,.00010279,53.1588,209.3675,83.9108,276.2001,0,U,54789,999,19797,-.86135114E-4,-.1658E-4,0
