O3B MPOWER F1           
1 54755U 22174A   26184.52441817 -.00000014  00000+0  00000+0 0  9999
2 54755   0.0504 340.1797 0006557 133.7327 228.0340  5.00114889 66172
O3B MPOWER F2           
1 54756U 22174B   26185.30075739 -.00000013  00000+0  00000+0 0  9992
2 54756   0.0462 340.1247 0005828 117.9144 262.0267  5.00115014 66309
STARLINK-5464           
1 54758U 22175A   26185.58335648  .01264433  00000+0  60951-1 0  9994
2 54758  53.1587 234.2455 0001265  50.5588   2.9446 15.15546196  5799
STARLINK-5215           
1 54759U 22175B   26185.58335648  .01098623  00000+0  47829-1 0  9990
2 54759  53.1594 234.1554 0001449  68.0134  30.5190 15.19060042  5745
STARLINK-5220           
1 54760U 22175C   26185.45317425  .00001209  00000+0  94082-4 0  9990
2 54760  53.1582 239.9373 0001059  88.3771 271.7342 15.08829787197540
STARLINK-5202           
1 54761U 22175D   26185.45618336  .00075899  00000+0  46587-2 0  9997
2 54761  53.1602 239.9600 0000519  40.6676 319.4354 15.09441267197549
STARLINK-5214           
1 54762U 22175E   26185.58335648  .00081436  00000+0  28077-2 0  9992
2 54762  53.1607 237.4477 0001104  65.1828 186.9185 15.29309098  5805
STARLINK-5191           
1 54763U 22175F   26185.44948893  .00001155  00000+0  90635-4 0  9991
2 54763  53.1596 239.9157 0000937  80.8509 279.2589 15.08830067197547
STARLINK-5458           
1 54764U 22175G   26185.16337085  .00001914  00000+0  13830-3 0  9990
2 54764  53.1589 240.9788 0002372  87.1466 272.9796 15.08853851197501
STARLINK-5471           
1 54766U 22175J   26185.43475174  .00000356  00000+0  40430-4 0  9990
2 54766  53.1588 239.8226 0001256  84.4851 275.6284 15.08846144197547
STARLINK-5472           
1 54767U 22175K   26185.43106500  .00000494  00000+0  49105-4 0  9996
2 54767  53.1593 239.7999 0001241  85.7954 274.3180 15.08833735197545
STARLINK-5444           
1 54768U 22175L   26185.58335648  .00077713  00000+0  24930-2 0  9995
2 54768  53.1596 222.6122 0001153  78.6642 104.9037 15.31662033  5808
STARLINK-5448           
1 54770U 22175N   26185.58335648  .00210053  00000+0  60990-2 0  9990
2 54770  53.1598 222.2577 0001521  33.6465 331.3759 15.34176655  5806
STARLINK-5451           
1 54771U 22175P   26185.58335648  .01231578  00000+0  59623-1 0  9997
2 54771  53.1598 233.8625 0001328 101.5440 146.4271 15.14980315  5800
STARLINK-5452           
1 54772U 22175Q   26185.58335648  .00826217  00000+0  33519-1 0  9993
2 54772  53.1597 223.8808 0001180  72.7630 179.1463 15.21811414  4949
STARLINK-5453           
1 54773U 22175R   26185.55617661  .00000166  00000+0  28532-4 0  9998
2 54773  53.1593 239.1594 0001266  89.4425 270.6712 15.08834487197565
STARLINK-5454           
1 54774U 22175S   26185.58335648  .01245888  00000+0  54019-1 0  9993
2 54774  53.1601 223.5961 0001553  51.1189 346.8352 15.18825328  5696
STARLINK-5465           
1 54775U 22175T   26185.42001184 -.00000106  00000+0  11424-4 0  9990
2 54775  53.1594 239.7335 0001279  87.5430 272.5708 15.08834296197548
STARLINK-5470           
1 54776U 22175U   26185.53038679  .00001173  00000+0  91780-4 0  9999
2 54776  53.1585 239.0048 0000971  92.9272 267.1831 15.08831124197561
STARLINK-5468           
1 54777U 22175V   26185.41634444  .00001755  00000+0  12835-3 0  9998
2 54777  53.1581 239.7106 0000876  90.7508 269.3584 15.08827206197545
STARLINK-5450           
1 54778U 22175W   26185.58335648  .01570324  00000+0  60405-1 0  9999
2 54778  53.1610 223.7722 0000836  64.7430 242.0327 15.22719856  5602
STARLINK-5447           
1 54779U 22175X   26185.58335648  .01543693  00000+0  58917-1 0  9994
2 54779  53.1609 223.7489 0001163  61.0082 257.6619 15.23044312  5805
STARLINK-5449           
1 54780U 22175Y   26185.58335648  .01531403  00000+0  60844-1 0  9994
2 54780  53.1603 223.6603 0001117  61.7668 299.1131 15.21699423  5395
STARLINK-5443           
1 54781U 22175Z   26185.58335648  .01517517  00000+0  57953-1 0  9992
2 54781  53.1606 223.6203 0001473  58.8672 322.5544 15.23080562  5807
STARLINK-5439           
1 54783U 22175AB  26185.58335648  .00077572  00000+0  24886-2 0  9995
2 54783  53.1587 222.5617 0000919  76.6475 132.6746 15.31661399  4947
STARLINK-5442           
1 54784U 22175AC  26185.41264094  .00000260  00000+0  34449-4 0  9992
2 54784  53.1592 239.6898 0000863  78.8926 281.2163 15.08837516197540
STARLINK-5440           
1 54785U 22175AD  26185.58335648  .00099058  00000+0  43402-2 0  9995
2 54785  53.1596 183.5151 0002005  70.9212  49.1745 15.21205009  5754
STARLINK-5441           
1 54787U 22175AF  26185.40896122  .00001906  00000+0  13783-3 0  9992
2 54787  53.1600 239.6655 0001388  85.2017 274.9133 15.08829310197549
STARLINK-5399           
1 54788U 22175AG  26185.58335648  .01579043  00000+0  60885-1 0  9999
2 54788  53.1601 223.5408 0001644  64.3623   0.7226 15.22624178  5801
STARLINK-5446           
1 54789U 22175AH  26185.48532414 -.00001658  00000+0 -86135-4 0  9991
2 54789  53.1588 209.3675 0001027  83.9108 276.2001 15.08838010197971
